INTELSAT 23 (IS-23)     
1 38867U 12057A   26197.54628109 -.00000295  00000+0  00000+0 0  9992
2 38867   0.0210 309.6194 0000703 307.1069 181.3059  1.00263028 50245
FM-6                    
1 39360U 13058A   26197.39350294 -.00000026  00000+0  00000+0 0  9995
2 39360   0.0150  42.5489 0001587 139.8142 137.1641  1.00271034 46360
INTELSAT 30 (IS-30)     
1 40271U 14062A   26196.89471485 -.00000161  00000+0  00000+0 0  9994
2 40271   0.0195  54.0858 0001415 333.0622 133.6241  1.00269522  7083
DIRECTV 14              
1 40333U 14078B   26197.60651666 -.00000136  00000+0  00000+0 0  9993
2 40333   0.0101  43.9278 0000479 317.0813  52.5317  1.00271916 42335
DIRECTV 15              
1 40663U 15026A   26197.60599666 -.00000113  00000+0  00000+0 0  9999
2 40663   0.0230  76.6558 0000263 264.8032  68.2365  1.00268719 40759
SKY MEXICO-1            
1 40664U 15026B   26197.53946390 -.00000245  00000+0  00000+0 0  9998
2 40664   0.0141  52.1220 0002260  80.6692 276.9759  1.00272683 40740
INTELSAT 34 (IS-34)     
1 40874U 15039A   26197.47128135 -.00000296  00000+0  00000+0 0  9993
2 40874   0.0105  22.5959 0000386 348.7753  37.0898  1.00269366 39928
INTELSAT 31 (IS-31)     
1 41581U 16035A   26197.53625722 -.00000161  00000+0  00000+0 0  9998
2 41581   0.0078 287.8896 0001121   7.9450  96.5270  1.00270053 36976
INTELSAT 36 (IS-36)     
1 41747U 16053A   26197.35467046 -.00000035  00000+0  00000+0 0  9995
2 41747   0.0127  38.7567 0002350 300.8444 150.7380  1.00270623 36255
INTELSAT 32E (IS-32E)   
1 41945U 17007B   26197.47521487  .00000000  00000+0  00000+0 0  9999
2 41945   0.0227  58.7012 0000524 303.2143  60.2920  1.00268314 34513
INTELSAT 35E (IS-35E)   
1 42818U 17041A   26197.47694822 -.00000249  00000+0  00000+0 0  9997
2 42818   0.0179  47.9337 0001824  69.8780 313.6845  1.00272853 33103
INTELSAT 37E (IS-37E)   
1 42950U 17059A   26197.40892568 -.00000152  00000+0  00000+0 0  9996
2 42950   0.0163  57.7127 0002494  59.9226 305.7979  1.00271024 32353
AZERSPACE 2 (IS-38)     
1 43632U 18074A   26197.56399068  .00000000  00000+0  00000+0 0  9997
2 43632   0.0216  54.0750 0001374  62.4548  66.0257  1.00269894 28740
HORIZONS-3E             
1 43633U 18074B   26197.59419667 -.00000042  00000+0  00000+0 0  9996
2 43633   0.0407 235.9743 0000812  40.8332  40.5114  1.00270171 28639
AT&T T-16               
1 44333U 19034A   26197.41017068 -.00000126  00000+0  00000+0 0  9994
2 44333   0.0161  73.6901 0000564 259.4193   7.9269  1.00272155 25925
INTELSAT 39 (IS-39)     
1 44476U 19049B   26197.42478576  .00000000  00000+0  00000+0 0  9994
2 44476   0.0248  59.8178 0000932 282.2934 167.0206  1.00269323 25424
GALAXY 30 (G-30)        
1 46114U 20056C   26197.60157663  .00000000  00000+0  00000+0 0  9996
2 46114   0.0214  56.5076 0002190  60.5101 268.9915  1.00270669 21586
GALAXY 33 (G-33)        
1 54026U 22128A   26196.95832123  .00000068  00000+0  00000+0 0  9991
2 54026   0.0111  52.8487 0001813  67.7217  25.2247  1.00272587 14031
GALAXY 34 (G-34)        
1 54027U 22128B   26197.52949719  .00000048  00000+0  00000+0 0  9994
2 54027   0.0110  48.7415 0001564  70.2065 237.0257  1.00273857 14203
GALAXY 31 (G-31)        
1 54243U 22153A   26197.53114385  .00000003  00000+0  00000+0 0  9997
2 54243   0.0151  90.2200 0001035  29.5166 244.8155  1.00271578  7421
GALAXY 32 (G-32)        
1 54244U 22153B   26197.53703722 -.00000185  00000+0  00000+0 0  9999
2 54244   0.0103  55.2860 0001345 349.2681 352.1401  1.00272432 13435
GALAXY 35 (G-35)        
1 54741U 22170A   26197.53660389 -.00000173  00000+0  00000+0 0  9998
2 54741   0.0155  72.6518 0001811  43.6931 278.0815  1.00272250 13183
GALAXY 36 (G-36)        
1 54742U 22170B   26197.53747056 -.00000196  00000+0  00000+0 0  9991
2 54742   0.0175 133.4348 0002561 325.3610 300.0558  1.00271884 13069
GALAXY 37 (G-37)        
1 57493U 23112A   26197.17344942  .00000000  00000+0  00000+0 0  9994
2 57493   0.0184  49.9091 0001823  68.6969 110.8601  1.00271297 10831
